{"fetched_at":"2026-07-19T17:31:54.212Z","source":"https://celestrak.org/NORAD/elements/gp.php?NAME=SENTINEL&FORMAT=JSON","constellation":"sentinel-5p","records":[{"OBJECT_NAME":"SENTINEL-5P","OBJECT_ID":"2017-064A","EPOCH":"2026-07-19T06:33:03.178944","CLASSIFICATION_TYPE":"U","MEAN_MOTION":14.19523651,"ECCENTRICITY":0.00011718,"INCLINATION":98.7929,"RA_OF_ASC_NODE":142.1773,"ARG_OF_PERICENTER":93.996,"MEAN_ANOMALY":266.135,"EPHEMERIS_TYPE":0,"NORAD_CAT_ID":42969,"ELEMENT_SET_NO":999,"REV_AT_EPOCH":45411,"BSTAR":0.000022559147,"MEAN_MOTION_DOT":3e-8,"MEAN_MOTION_DDOT":0}]}
