SENTINEL-5P             
1 42969U 17064A   26200.27295346  .00000003  00000+0  22559-4 0  9995
2 42969  98.7929 142.1773 0001171  93.9960 266.1350 14.19523651454112
